NAVSTAR 51 (USA 166)    
1 27663U 03005A   26062.42063535 -.00000005  00000+0  00000+0 0  9990
2 27663  54.9076 219.1686 0148734  52.7101 318.0754  2.00566304169193
NAVSTAR 54 (USA 177)    
1 28190U 04009A   26061.95050060 -.00000010  00000+0  00000+0 0  9993
2 28190  54.9168 279.9786 0110897 169.0266  18.2442  2.00558110160818
NAVSTAR 56 (USA 180)    
1 28474U 04045A   26062.59556058 -.00000091  00000+0  00000+0 0  9996
2 28474  55.1952 329.1518 0170861 312.7942  43.5969  2.00573334156302
NAVSTAR 57 (USA 183)    
1 28874U 05038A   26061.34676233 -.00000001  00000+0  00000+0 0  9994
2 28874  54.9646 277.4881 0128856 295.3112 199.7188  2.00573091149694
METEOSAT-9 (MSG-2)      
1 28912U 05049B   26062.59556743  .00000114  00000+0  00000+0 0  9994
2 28912   9.1231  55.1899 0001832 221.0140 145.2732  1.00276803  5940
NAVSTAR 59 (USA 192)    
1 29601U 06052A   26062.21657634 -.00000006  00000+0  00000+0 0  9996
2 29601  54.9576 218.2042 0087889  89.3417 271.6153  2.00551534141283
NAVSTAR 60 (USA 196)    
1 32260U 07047A   26062.52345086  .00000003  00000+0  00000+0 0  9991
2 32260  54.0150  84.4197 0163595  85.9453 275.9860  2.00560744134694
NAVSTAR 61 (USA 199)    
1 32384U 07062A   26062.57984922 -.00000013  00000+0  00000+0 0  9990
2 32384  55.1154 278.3967 0032908 160.6521   8.1657  2.00553462133391
GOES 14                 
1 35491U 09033A   26062.69783465  .00000115  00000+0  00000+0 0  9996
2 35491   1.4171  84.4315 0002209 297.0894 233.3639  1.00123964  5533
EWS-G2 (GOES 15)        
1 36411U 10008A   26062.76647534  .00000008  00000+0  00000+0 0  9998
2 36411   1.0075  85.1610 0001695  23.0222  32.7596  1.00269377 58586
GSAT0101 (GALILEO-PFM)  
1 37846U 11060A   26053.46432651 -.00000082  00000+0  00000+0 0  9992
2 37846  57.0318 344.8758 0003975 357.0591   2.9533  1.70475478 89166
GSAT0102 (GALILEO-FM2)  
1 37847U 11060B   26060.06318653 -.00000106  00000+0  00000+0 0  9999
2 37847  57.0301 344.6971 0005422 341.2092 154.1953  1.70475778 89286
LUCH-5A                 
1 37951U 11074B   26062.83352980 -.00000057  00000+0  00000+0 0  9993
2 37951   8.4858  75.3546 0004005 243.8626 309.5287  1.00275356 51997
METEOSAT-10 (MSG-3)     
1 38552U 12035B   26062.80044852 -.00000015  00000+0  00000+0 0  9996
2 38552   4.4223  61.4660 0002501 294.0063  94.5172  1.00277243 49800
METOP-B                 
1 38771U 12049A   26062.74336681  .00000146  00000+0  86609-4 0  9999
2 38771  98.6654 116.2789 0001220 298.9685  61.1370 14.21442356698285
NAVSTAR 67 (USA 239)    
1 38833U 12053A   26060.62550247 -.00000018  00000+0  00000+0 0  9999
2 38833  53.5656 148.0073 0176910  64.7623 297.0865  2.00565726 97288
GSAT0103 (GALILEO-FM3)  
1 38857U 12055A   26061.13039064  .00000014  00000+0  00000+0 0  9998
2 38857  55.7369 104.4827 0005349 284.8926  75.1340  1.70473355 83189
